GALAXY 23 (G-23)        
1 27854U 03034A   23175.72030830  .00000025  00000+0  00000+0 0  9992
2 27854   0.3805  94.6268 0003018   5.1327 311.1624  1.00271748 77630
USA 170                 
1 27875U 03040A   23176.17757726 -.00000264  00000+0  00000+0 0  9998
2 27875   8.1695  57.2500 0004242  56.8385 180.4684  1.00269450 20714
GALAXY 13 (HORIZONS-1)  
1 27954U 03044A   23175.46827472  .00000060  00000+0  00000+0 0  9990
2 27954   0.0281  45.0657 0002279  67.9481 200.8832  1.00271840 72232
YAMAL 202               
1 28089U 03053A   23176.46172302 -.00000067  00000+0  00000+0 0  9994
2 28089   3.5776  83.8855 0005876  22.0691 137.0676  1.00271338 71777
UFO 11 (USA 174)        
1 28117U 03057A   23175.01924488 -.00000097  00000+0  00000+0 0  9993
2 28117   7.5168  37.5481 0005327  54.8075 262.0704  1.00271260 71493
USA 176 (DSP 22)        
1 28158U 04004A   23176.06229826 -.00000212  00000+0  00000+0 0  9990
2 28158  10.5791  33.1701 0000483 301.6026  47.9714  1.00274208 20690
ABS-4 (MOBISAT-1)       
1 28184U 04007A   23176.04322741  .00000052  00000+0  00000+0 0  9991
2 28184   3.2677  84.9969 0005045   8.3887 256.1174  1.00275257 70678
EUTELSAT 7A             
1 28187U 04008A   23175.46153986  .00000115  00000+0  00000+0 0  9993
2 28187   3.0492  84.5723 0004280   5.6427 209.0670  1.00273055 70658
AMC-11 (GE-11)          
1 28252U 04017A   23176.16334413 -.00000037  00000+0  00000+0 0  9994
2 28252   0.0253  47.3055 0001044  60.9332 112.5095  1.00274165 69797
INTELSAT 10-02          
1 28358U 04022A   23175.38799565  .00000001  00000+0  00000+0 0  9993
2 28358   0.0326  80.3101 0000676  35.8746 294.7979  1.00271915 69709
ANIK F2                 
1 28378U 04027A   23176.00892664 -.00000037  00000+0  00000+0 0  9994
2 28378   0.4674  92.8958 0002974  12.2101  59.8827  1.00272330 69441
AMC-15                  
1 28446U 04041A   23176.01014694 -.00000076  00000+0  00000+0 0  9999
2 28446   0.0378 305.6284 0002701 139.9206  85.9340  1.00271311 68438
NSS-10 (AMC-12)         
1 28526U 05003A   23175.52187299 -.00000240  00000+0  00000+0 0  9997
2 28526   3.7111  83.3037 0002955 356.4080 343.1191  1.00271769 67401
XTAR-EUR                
1 28542U 05005A   23175.41171051  .00000162  00000+0  00000+0 0  9996
2 28542   1.5235  90.2539 0003988  14.1789 345.0885  1.00271075 67262
XM-3 (RHYTHM)           
1 28626U 05008A   23176.01415653 -.00000192  00000+0  00000+0 0  9992
2 28626   0.0143 190.1006 0000068 115.9267 246.8514  1.00266815 67154
INMARSAT 4-F1           
1 28628U 05009A   23176.07902262 -.00000249  00000+0  00000+0 0  9991
2 28628   3.9172  38.5414 0002687  57.1985 349.1528  1.00271949 66752
DIRECTV 8               
1 28659U 05019A   23176.45103216  .00000015  00000+0  00000+0 0  9990
2 28659   0.0181  27.3309 0002689  70.0644 219.2530  1.00272101 66279
GALAXY 28 (G-28)        
1 28702U 05022A   23176.01337205 -.00000172  00000+0  00000+0 0  9997
2 28702   0.4850  91.6472 0001269  16.6765  80.3800  1.00270320 65911
THAICOM 4               
1 28786U 05028A   23176.05482034 -.00000349  00000+0  00000+0 0  9996
2 28786   0.0002   3.2495 0002045  93.0445 315.8543  1.00270952 65415
GALAXY 14 (G-14)        
1 28790U 05030A   23176.26785594  .00000168  00000+0  00000+0 0  9992
2 28790   2.2094  88.0851 0001467 355.9201 318.4624  1.00273015 65398
ANIK F1R                
1 28868U 05036A   23176.00971112 -.00000062  00000+0  00000+0 0  9993
2 28868   1.5075  89.9049 0002934   3.4578  75.7191  1.00272299 65245
SYRACUSE 3A             
1 28885U 05041B   23176.05813303  .00000141  00000+0  00000+0 0  9997
2 28885   1.9567  89.0869 0002596   4.8279 246.9334  1.00270608 64828
INMARSAT 4-F2           
1 28899U 05044A   23176.04383757  .00000022  00000+0  00000+0 0  9997
2 28899   3.8148  40.4153 0002664  60.2317 251.9376  1.00272582 64589
SPACEWAY 2              
1 28903U 05046B   23176.14580590  .00000116  00000+0  00000+0 0  9994
2 28903   2.7590  84.5094 0000646 266.3124 195.8068  1.00271121 64582
METEOSAT-9 (MSG-2)      
1 28912U 05049B   23175.75351174  .00000137  00000+0  00000+0 0  9990
2 28912   6.8626  63.7156 0001572 172.0779 353.8590  1.00268054 64164
EUTELSAT 174A           
1 28924U 05052A   23175.60397498  .00000021  00000+0  00000+0 0  9992
2 28924   1.4458  89.6077 0006142   1.8617 212.4479  1.00271110 64060
ECHOSTAR 10             
1 28935U 06003A   23175.45926060 -.00000044  00000+0  00000+0 0  9993
2 28935   0.0150 332.9466 0001941  74.6503 279.9093  1.00271166 63606
SPAINSAT                
1 28945U 06007A   23174.32992058 -.00000207  00000+0  00000+0 0  9994
2 28945   0.0494 251.1905 0003381 218.5378 250.3031  1.00273169 63281
EUTELSAT HOTBIRD 13E    
1 28946U 06007B   23176.03363928  .00000101  00000+0  00000+0 0  9995
2 28946   0.0567 168.0311 0005675 314.0178 175.9689  1.00274068 63389
JCSAT-5A                
1 29045U 06010A   23175.48477601 -.00000316  00000+0  00000+0 0  9991
2 29045   0.0183 275.4999 0000586  37.8124 265.6406  1.00272852 63020
ASTRA 1KR               
1 29055U 06012A   23176.08799279  .00000133  00000+0  00000+0 0  9995
2 29055   0.0379 284.9764 0001544 222.0938 176.7237  1.00271896 62838
EWS-G1 (GOES 13)        
1 29155U 06018A   23172.81756907  .00000043  00000+0  00000+0 0  9990
2 29155   1.5416  91.7221 0002821  86.8158  86.8398  1.00274805 32433
EUTELSAT 113 WEST A     
1 29162U 06020A   23175.57850715 -.00000026  00000+0  00000+0 0  9991
2 29162   0.0048 149.1133 0002988 312.2158 266.4049  1.00272290 62557
GALAXY 16 (G-16)        
1 29236U 06023A   23176.13287389 -.00000114  00000+0  00000+0 0  9998
2 29236   0.0154 302.2644 0002735 159.1976 120.3803  1.00272090 62354
EUTELSAT HOTBIRD 13B    
1 29270U 06032A   23176.08799279  .00000100  00000+0  00000+0 0  9990
2 29270   0.0565  19.0009 0003946  67.3624 231.2699  1.00273519 61947
JCSAT-3A                
1 29272U 06033A   23176.05656363 -.00000332  00000+0  00000+0 0  9994
2 29272   0.0262  84.3079 0002685  27.2175 309.7725  1.00270369 61851
SYRACUSE 3B             
1 29273U 06033B   23176.42479747 -.00000030  00000+0  00000+0 0  9990
2 29273   0.1041  95.2500 0004340 357.0139 328.7624  1.00271678 61844
KOREASAT 5 (MUGUNGWHA 5)
1 29349U 06034A   23175.52370216 -.00000346  00000+0  00000+0 0  9996
2 29349   0.0047  78.6890 0001195  23.6055 111.7033  1.00273678 61710
DIRECTV 9S              
1 29494U 06043A   23176.01093144 -.00000100  00000+0  00000+0 0  9992
2 29494   0.1511 277.7884 0002852 174.0733  83.7597  1.00273975 61193
OPTUS D1                
1 29495U 06043B   23176.09806286 -.00000170  00000+0  00000+0 0  9997
2 29495   0.2191  92.4509 0003597   0.6267   7.2086  1.00272174 61237
XM-4 (BLUES)            
1 29520U 06049A   23176.32271368 -.00000242  00000+0  00000+0 0  9995
2 29520   0.0619 123.3082 0000500 321.2809 265.8378  1.00266655 61080
BADR-4                  
1 29526U 06051A   23176.32298253  .00000158  00000+0  00000+0 0  9991
2 29526   0.0408 331.1860 0002081  89.7376 354.5405  1.00270107 60988
WILDBLUE-1              
1 29643U 06054A   23176.16334469 -.00000036  00000+0  00000+0 0  9992
2 29643   0.0145  97.7967 0001814 324.1401 158.7244  1.00272253 60638
AMC-18                  
1 29644U 06054B   23176.01450519 -.00000203  00000+0  00000+0 0  9998
2 29644   0.0184  38.7261 0002291  49.1602 107.2244  1.00273361 60619
SKYNET 5A               
1 30794U 07007B   23176.06229826 -.00000259  00000+0  00000+0 0  9996
2 30794   2.5122  86.5568 0003445   8.8036 295.2250  1.00272771 59743
ANIK F3                 
1 31102U 07009A   23176.45103279  .00000013  00000+0  00000+0 0  9995
2 31102   0.0119  56.9986 0002195  27.9663 232.0183  1.00272551 59436
ASTRA 1L                
1 31306U 07016A   23176.32158788  .00000134  00000+0  00000+0 0  9994
2 31306   0.0542 319.4325 0001888  64.7994  23.9200  1.00272505 59133
GALAXY 17 (G-17)        
1 31307U 07016B   23176.45471961 -.00000192  00000+0  00000+0 0  9995
2 31307   0.2055  94.5439 0002777  42.0764 215.4077  1.00271051 59162
ZHONGXING-6B            
1 31800U 07031A   23176.15177833 -.00000348  00000+0  00000+0 0  9991
2 31800   0.0207  93.7452 0003003 355.8099 353.6386  1.00270438 58561
DIRECTV 10              
1 31862U 07032A   23176.46199955 -.00000088  00000+0  00000+0 0  9994
2 31862   0.0396 205.5361 0000036 270.3662 220.9425  1.00269983 58495
SPACEWAY 3              
1 32018U 07036A   23176.46695125 -.00000138  00000+0  00000+0 0  9998
2 32018   1.1743  89.4050 0000243 120.4534 136.6391  1.00271689 58226
BSAT-3A                 
1 32019U 07036B   23175.98130019 -.00000337  00000+0  00000+0 0  9992
2 32019   0.0532 220.9969 0001920 305.6517 209.3213  1.00273403 58152
OPTUS D2                
1 32252U 07044A   23175.57317846 -.00000099  00000+0  00000+0 0  9995
2 32252   0.0175 351.9878 0003472 101.5118 185.3089  1.00272105 57524
INTELSAT 11 (IS-11)     
1 32253U 07044B   23176.32827080 -.00000255  00000+0  00000+0 0  9990
2 32253   0.7392  92.1652 0003230  10.8551 245.3684  1.00271137 57625
WGS F1 (USA 195)        
1 32258U 07046A   23176.36855164  .00000055  00000+0  00000+0 0  9992
2 32258   0.0034 114.2803 0000374 313.5450 344.1012  1.00273523 57418
SKYNET 5B               
1 32294U 07056B   23175.39354834  .00000152  00000+0  00000+0 0  9991
2 32294   2.4686  85.9863 0004043   7.3805 345.7123  1.00269049 57278
ASTRA 4A (SIRIUS 4)     
1 32299U 07057A   23176.08105083  .00000046  00000+0  00000+0 0  9996
2 32299   0.0232  54.5841 0002570  36.3307 216.0347  1.00273459 57047
HORIZONS-2              
1 32388U 07063B   23175.51463830 -.00000242  00000+0  00000+0 0  9995
2 32388   0.0165  59.9986 0002485  47.8770 275.9970  1.00272773 56960
THURAYA-3               
1 32404U 08001A   23175.05813449 -.00000293  00000+0  00000+0 0  9997
2 32404   4.4047  28.6573 0002510  48.4451 314.2770  1.00272918 56611
